[
    {
        "OBJECT_NAME": "CZ-4B R/B",
        "OBJECT_ID": "2003-049C",
        "EPOCH": "2026-05-16T19:20:42.084096",
        "MEAN_MOTION": 14.55075934,
        "ECCENTRICITY": 0.0048634,
        "INCLINATION": 98.6899,
        "RA_OF_ASC_NODE": 134.4052,
        "ARG_OF_PERICENTER": 25.2264,
        "MEAN_ANOMALY": 335.1291,
        "EPHEMERIS_TYPE": 0,
        "CLASSIFICATION_TYPE": "U",
        "NORAD_CAT_ID": 28059,
        "ELEMENT_SET_NO": 999,
        "REV_AT_EPOCH": 19650,
        "BSTAR": 5.9481e-05,
        "MEAN_MOTION_DOT": 2.09e-06,
        "MEAN_MOTION_DDOT": 0
    },
    {
        "OBJECT_NAME": "CZ-2C R/B",
        "OBJECT_ID": "2004-012C",
        "EPOCH": "2026-05-16T15:59:58.350048",
        "MEAN_MOTION": 15.73321763,
        "ECCENTRICITY": 0.0010837,
        "INCLINATION": 97.7111,
        "RA_OF_ASC_NODE": 208.8125,
        "ARG_OF_PERICENTER": 64.2253,
        "MEAN_ANOMALY": 296.0127,
        "EPHEMERIS_TYPE": 0,
        "CLASSIFICATION_TYPE": "U",
        "NORAD_CAT_ID": 28222,
        "ELEMENT_SET_NO": 999,
        "REV_AT_EPOCH": 21493,
        "BSTAR": 0.0005499,
        "MEAN_MOTION_DOT": 0.00076518,
        "MEAN_MOTION_DDOT": 0
    },
    {
        "OBJECT_NAME": "SL-16 R/B",
        "OBJECT_ID": "2004-021B",
        "EPOCH": "2026-05-16T14:58:14.121120",
        "MEAN_MOTION": 14.14605099,
        "ECCENTRICITY": 0.0006913,
        "INCLINATION": 70.9995,
        "RA_OF_ASC_NODE": 89.9272,
        "ARG_OF_PERICENTER": 287.6448,
        "MEAN_ANOMALY": 72.3919,
        "EPHEMERIS_TYPE": 0,
        "CLASSIFICATION_TYPE": "U",
        "NORAD_CAT_ID": 28353,
        "ELEMENT_SET_NO": 999,
        "REV_AT_EPOCH": 13244,
        "BSTAR": 0.0001762,
        "MEAN_MOTION_DOT": 2.91e-06,
        "MEAN_MOTION_DDOT": 0
    },
    {
        "OBJECT_NAME": "CZ-4B R/B",
        "OBJECT_ID": "2004-035C",
        "EPOCH": "2026-05-16T19:30:24.116832",
        "MEAN_MOTION": 15.301122,
        "ECCENTRICITY": 0.0033128,
        "INCLINATION": 97.339,
        "RA_OF_ASC_NODE": 170.2484,
        "ARG_OF_PERICENTER": 87.3661,
        "MEAN_ANOMALY": 273.1371,
        "EPHEMERIS_TYPE": 0,
        "CLASSIFICATION_TYPE": "U",
        "NORAD_CAT_ID": 28415,
        "ELEMENT_SET_NO": 999,
        "REV_AT_EPOCH": 19032,
        "BSTAR": 0.0002261,
        "MEAN_MOTION_DOT": 6.621e-05,
        "MEAN_MOTION_DDOT": 0
    },
    {
        "OBJECT_NAME": "CZ-2C R/B",
        "OBJECT_ID": "2004-046B",
        "EPOCH": "2026-05-16T18:42:16.936416",
        "MEAN_MOTION": 14.27017755,
        "ECCENTRICITY": 0.0138459,
        "INCLINATION": 98.1964,
        "RA_OF_ASC_NODE": 47.519,
        "ARG_OF_PERICENTER": 313.942,
        "MEAN_ANOMALY": 45.0404,
        "EPHEMERIS_TYPE": 0,
        "CLASSIFICATION_TYPE": "U",
        "NORAD_CAT_ID": 28480,
        "ELEMENT_SET_NO": 999,
        "REV_AT_EPOCH": 11821,
        "BSTAR": 4.6737e-05,
        "MEAN_MOTION_DOT": 8.3e-07,
        "MEAN_MOTION_DDOT": 0
    },
    {
        "OBJECT_NAME": "ARIANE 5 R/B",
        "OBJECT_ID": "2004-049H",
        "EPOCH": "2026-05-16T19:22:12.753120",
        "MEAN_MOTION": 14.85394476,
        "ECCENTRICITY": 0.0085028,
        "INCLINATION": 98.2703,
        "RA_OF_ASC_NODE": 307.8533,
        "ARG_OF_PERICENTER": 129.7999,
        "MEAN_ANOMALY": 231.074,
        "EPHEMERIS_TYPE": 0,
        "CLASSIFICATION_TYPE": "U",
        "NORAD_CAT_ID": 28499,
        "ELEMENT_SET_NO": 999,
        "REV_AT_EPOCH": 15590,
        "BSTAR": 6.6091e-05,
        "MEAN_MOTION_DOT": 5.43e-06,
        "MEAN_MOTION_DDOT": 0
    },
    {
        "OBJECT_NAME": "CZ-2D R/B",
        "OBJECT_ID": "2005-024B",
        "EPOCH": "2026-05-16T11:56:22.481088",
        "MEAN_MOTION": 15.66179819,
        "ECCENTRICITY": 0.0006694,
        "INCLINATION": 97.3509,
        "RA_OF_ASC_NODE": 154.4263,
        "ARG_OF_PERICENTER": 121.025,
        "MEAN_ANOMALY": 239.1668,
        "EPHEMERIS_TYPE": 0,
        "CLASSIFICATION_TYPE": "U",
        "NORAD_CAT_ID": 28738,
        "ELEMENT_SET_NO": 999,
        "REV_AT_EPOCH": 15037,
        "BSTAR": 0.00043989,
        "MEAN_MOTION_DOT": 0.00045298,
        "MEAN_MOTION_DDOT": 0
    },
    {
        "OBJECT_NAME": "ALOS (DAICHI)",
        "OBJECT_ID": "2006-002A",
        "EPOCH": "2026-05-16T20:20:33.326880",
        "MEAN_MOTION": 14.69980834,
        "ECCENTRICITY": 0.0002189,
        "INCLINATION": 98.131,
        "RA_OF_ASC_NODE": 92.5183,
        "ARG_OF_PERICENTER": 83.2579,
        "MEAN_ANOMALY": 276.8876,
        "EPHEMERIS_TYPE": 0,
        "CLASSIFICATION_TYPE": "U",
        "NORAD_CAT_ID": 28931,
        "ELEMENT_SET_NO": 999,
        "REV_AT_EPOCH": 8349,
        "BSTAR": 0.00011338,
        "MEAN_MOTION_DOT": 6.3e-06,
        "MEAN_MOTION_DDOT": 0
    },
    {
        "OBJECT_NAME": "H-2A R/B",
        "OBJECT_ID": "2006-002B",
        "EPOCH": "2026-05-16T20:56:47.710752",
        "MEAN_MOTION": 15.17662705,
        "ECCENTRICITY": 0.0051072,
        "INCLINATION": 98.2529,
        "RA_OF_ASC_NODE": 289.8866,
        "ARG_OF_PERICENTER": 10.8134,
        "MEAN_ANOMALY": 349.4182,
        "EPHEMERIS_TYPE": 0,
        "CLASSIFICATION_TYPE": "U",
        "NORAD_CAT_ID": 28932,
        "ELEMENT_SET_NO": 999,
        "REV_AT_EPOCH": 10477,
        "BSTAR": 0.00022271,
        "MEAN_MOTION_DOT": 4.554e-05,
        "MEAN_MOTION_DDOT": 0
    },
    {
        "OBJECT_NAME": "RESURS-DK 1",
        "OBJECT_ID": "2006-021A",
        "EPOCH": "2026-05-16T18:24:26.099136",
        "MEAN_MOTION": 15.13073498,
        "ECCENTRICITY": 0.0004826,
        "INCLINATION": 69.9319,
        "RA_OF_ASC_NODE": 60.8799,
        "ARG_OF_PERICENTER": 329.603,
        "MEAN_ANOMALY": 30.4856,
        "EPHEMERIS_TYPE": 0,
        "CLASSIFICATION_TYPE": "U",
        "NORAD_CAT_ID": 29228,
        "ELEMENT_SET_NO": 999,
        "REV_AT_EPOCH": 9782,
        "BSTAR": 7.7631e-05,
        "MEAN_MOTION_DOT": 1.268e-05,
        "MEAN_MOTION_DDOT": 0
    },
    {
        "OBJECT_NAME": "CZ-4B R/B",
        "OBJECT_ID": "2006-046C",
        "EPOCH": "2026-05-16T20:51:04.065984",
        "MEAN_MOTION": 15.17522196,
        "ECCENTRICITY": 0.0033609,
        "INCLINATION": 97.5477,
        "RA_OF_ASC_NODE": 181.5752,
        "ARG_OF_PERICENTER": 33.8453,
        "MEAN_ANOMALY": 326.4916,
        "EPHEMERIS_TYPE": 0,
        "CLASSIFICATION_TYPE": "U",
        "NORAD_CAT_ID": 29507,
        "ELEMENT_SET_NO": 999,
        "REV_AT_EPOCH": 7038,
        "BSTAR": 0.00017013,
        "MEAN_MOTION_DOT": 3.391e-05,
        "MEAN_MOTION_DDOT": 0
    },
    {
        "OBJECT_NAME": "CZ-2C R/B",
        "OBJECT_ID": "2007-010B",
        "EPOCH": "2026-05-16T18:44:07.848960",
        "MEAN_MOTION": 14.20268074,
        "ECCENTRICITY": 0.00602,
        "INCLINATION": 98.4065,
        "RA_OF_ASC_NODE": 246.6733,
        "ARG_OF_PERICENTER": 96.2469,
        "MEAN_ANOMALY": 264.557,
        "EPHEMERIS_TYPE": 0,
        "CLASSIFICATION_TYPE": "U",
        "NORAD_CAT_ID": 31114,
        "ELEMENT_SET_NO": 999,
        "REV_AT_EPOCH": 98938,
        "BSTAR": 4.4396e-05,
        "MEAN_MOTION_DOT": 5.6e-07,
        "MEAN_MOTION_DDOT": 0
    },
    {
        "OBJECT_NAME": "COSMO-SKYMED 1",
        "OBJECT_ID": "2007-023A",
        "EPOCH": "2026-05-16T20:29:06.396000",
        "MEAN_MOTION": 14.96939648,
        "ECCENTRICITY": 0.0001163,
        "INCLINATION": 97.8858,
        "RA_OF_ASC_NODE": 328.4492,
        "ARG_OF_PERICENTER": 90.6434,
        "MEAN_ANOMALY": 269.492,
        "EPHEMERIS_TYPE": 0,
        "CLASSIFICATION_TYPE": "U",
        "NORAD_CAT_ID": 31598,
        "ELEMENT_SET_NO": 999,
        "REV_AT_EPOCH": 2510,
        "BSTAR": 0.00012173,
        "MEAN_MOTION_DOT": 1.338e-05,
        "MEAN_MOTION_DDOT": 0
    },
    {
        "OBJECT_NAME": "COSMOS 2428",
        "OBJECT_ID": "2007-029A",
        "EPOCH": "2026-05-16T18:44:52.548000",
        "MEAN_MOTION": 14.12938269,
        "ECCENTRICITY": 0.0007964,
        "INCLINATION": 70.9397,
        "RA_OF_ASC_NODE": 60.4146,
        "ARG_OF_PERICENTER": 193.1169,
        "MEAN_ANOMALY": 166.9746,
        "EPHEMERIS_TYPE": 0,
        "CLASSIFICATION_TYPE": "U",
        "NORAD_CAT_ID": 31792,
        "ELEMENT_SET_NO": 999,
        "REV_AT_EPOCH": 97371,
        "BSTAR": -0.00011227,
        "MEAN_MOTION_DOT": -2.57e-06,
        "MEAN_MOTION_DDOT": 0
    },
    {
        "OBJECT_NAME": "SL-16 R/B",
        "OBJECT_ID": "2007-029B",
        "EPOCH": "2026-05-16T17:03:13.508064",
        "MEAN_MOTION": 14.14850918,
        "ECCENTRICITY": 0.000279,
        "INCLINATION": 70.9775,
        "RA_OF_ASC_NODE": 29.3978,
        "ARG_OF_PERICENTER": 268.0551,
        "MEAN_ANOMALY": 111.768,
        "EPHEMERIS_TYPE": 0,
        "CLASSIFICATION_TYPE": "U",
        "NORAD_CAT_ID": 31793,
        "ELEMENT_SET_NO": 999,
        "REV_AT_EPOCH": 97499,
        "BSTAR": -8.477e-05,
        "MEAN_MOTION_DOT": -2.12e-06,
        "MEAN_MOTION_DDOT": 0
    },
    {
        "OBJECT_NAME": "KORONAS-FOTON",
        "OBJECT_ID": "2009-003A",
        "EPOCH": "2026-05-16T17:43:36.921792",
        "MEAN_MOTION": 15.45017329,
        "ECCENTRICITY": 0.0008829,
        "INCLINATION": 82.4315,
        "RA_OF_ASC_NODE": 205.0451,
        "ARG_OF_PERICENTER": 265.728,
        "MEAN_ANOMALY": 94.296,
        "EPHEMERIS_TYPE": 0,
        "CLASSIFICATION_TYPE": "U",
        "NORAD_CAT_ID": 33504,
        "ELEMENT_SET_NO": 999,
        "REV_AT_EPOCH": 95624,
        "BSTAR": 0.00021138,
        "MEAN_MOTION_DOT": 0.00010021,
        "MEAN_MOTION_DDOT": 0
    }
]